[{"OBJECT_NAME":"STARLINK-31713","OBJECT_ID":"2024-062H","EPOCH":"2026-03-09T19:42:53.905536","MEAN_MOTION":15.30190826,"ECCENTRICITY":0.00010732,"INCLINATION":53.1586,"RA_OF_ASC_NODE":257.7442,"ARG_OF_PERICENTER":110.8629,"MEAN_ANOMALY":249.2487,"EPHEMERIS_TYPE":0,"CLASSIFICATION_TYPE":"U","NORAD_CAT_ID":59381,"ELEMENT_SET_NO":999,"REV_AT_EPOCH":10961,"BSTAR":2.1350691e-5,"MEAN_MOTION_DOT":2.73e-6,"MEAN_MOTION_DDOT":0},{"OBJECT_NAME":"CZ-4B DEB","OBJECT_ID":"2025-115B","EPOCH":"2026-03-09T18:01:12.826560","MEAN_MOTION":15.38891594,"ECCENTRICITY":0.00333367,"INCLINATION":97.487,"RA_OF_ASC_NODE":148.3212,"ARG_OF_PERICENTER":280.8109,"MEAN_ANOMALY":78.9385,"EPHEMERIS_TYPE":0,"CLASSIFICATION_TYPE":"U","NORAD_CAT_ID":64200,"ELEMENT_SET_NO":999,"REV_AT_EPOCH":4325,"BSTAR":0.0021921784,"MEAN_MOTION_DOT":0.00086722,"MEAN_MOTION_DDOT":0}]
